ONEWEB-0332             
1 49279U 21090A   24021.27610260  .00000091  00000+0  21149-3 0  9995
2 49279  87.8970 104.4756 0002076 110.5386 249.5967 13.14503779112240
ONEWEB-0347             
1 49280U 21090B   24021.25074728 -.00000104  00000+0 -28813-3 0  9990
2 49280  87.9175  89.2046 0002228 111.0576 249.0796 13.20770628115152
ONEWEB-0349             
1 49281U 21090C   24021.20655568  .00000155  00000+0  35046-3 0  9993
2 49281  87.9178  89.2107 0001633  93.8229 266.3091 13.20771978113938
ONEWEB-0356             
1 49283U 21090E   24021.20496995 -.00000087  00000+0 -24575-3 0  9993
2 49283  87.9177  89.2071 0001259 132.7624 227.3616 13.20770732113932
ONEWEB-0358             
1 49284U 21090F   24021.23495794  .00000011  00000+0 -50520-5 0  9990
2 49284  87.9179  89.1864 0001482 101.6161 258.5139 13.20770662114662
ONEWEB-0359             
1 49285U 21090G   24021.23180582 -.00000252  00000+0 -65285-3 0  9997
2 49285  87.9176  89.2079 0001724  85.0108 275.1222 13.20771270114646
ONEWEB-0360             
1 49286U 21090H   24021.22233677  .00000035  00000+0  54848-4 0  9992
2 49286  87.9176  89.2140 0001824  97.1810 262.9531 13.20771335113953
